[{"OBJECT_NAME":"GALS 1","OBJECT_ID":"1994-002A","EPOCH":"2026-03-02T22:39:43.553376","MEAN_MOTION":1.00299025,"ECCENTRICITY":0.0011444,"INCLINATION":14.5415,"RA_OF_ASC_NODE":354.6613,"ARG_OF_PERICENTER":242.4344,"MEAN_ANOMALY":299.1299,"EPHEMERIS_TYPE":0,"CLASSIFICATION_TYPE":"U","NORAD_CAT_ID":22963,"ELEMENT_SET_NO":999,"REV_AT_EPOCH":11764,"BSTAR":0,"MEAN_MOTION_DOT":1.14e-6,"MEAN_MOTION_DDOT":0},{"OBJECT_NAME":"SL-12 R/B(2)","OBJECT_ID":"1994-002D","EPOCH":"2026-03-03T00:25:11.146368","MEAN_MOTION":0.99471228,"ECCENTRICITY":0.0040217,"INCLINATION":13.9997,"RA_OF_ASC_NODE":344.8624,"ARG_OF_PERICENTER":145.005,"MEAN_ANOMALY":44.9539,"EPHEMERIS_TYPE":0,"CLASSIFICATION_TYPE":"U","NORAD_CAT_ID":22966,"ELEMENT_SET_NO":999,"REV_AT_EPOCH":11602,"BSTAR":0,"MEAN_MOTION_DOT":-1.16e-6,"MEAN_MOTION_DDOT":0},{"OBJECT_NAME":"VEP","OBJECT_ID":"1994-007B","EPOCH":"2026-03-01T19:18:01.949472","MEAN_MOTION":2.25988149,"ECCENTRICITY":0.72218152,"INCLINATION":29.1301,"RA_OF_ASC_NODE":56.1381,"ARG_OF_PERICENTER":235.5741,"MEAN_ANOMALY":34.9217,"EPHEMERIS_TYPE":0,"CLASSIFICATION_TYPE":"U","NORAD_CAT_ID":22979,"ELEMENT_SET_NO":999,"REV_AT_EPOCH":26387,"BSTAR":0.00052260333,"MEAN_MOTION_DOT":8.7e-7,"MEAN_MOTION_DDOT":0},{"OBJECT_NAME":"RADUGA-1 3","OBJECT_ID":"1994-008A","EPOCH":"2026-03-02T20:42:21.623328","MEAN_MOTION":1.00322741,"ECCENTRICITY":0.0001856,"INCLINATION":14.2132,"RA_OF_ASC_NODE":349.0126,"ARG_OF_PERICENTER":281.7438,"MEAN_ANOMALY":262.7498,"EPHEMERIS_TYPE":0,"CLASSIFICATION_TYPE":"U","NORAD_CAT_ID":22981,"ELEMENT_SET_NO":999,"REV_AT_EPOCH":11741,"BSTAR":0,"MEAN_MOTION_DOT":-1.5e-7,"MEAN_MOTION_DDOT":0},{"OBJECT_NAME":"USA 99 (MILSTAR-1 1)","OBJECT_ID":"1994-009A","EPOCH":"2026-03-03T01:07:54.727680","MEAN_MOTION":1.002731,"ECCENTRICITY":0.0004289,"INCLINATION":17.4606,"RA_OF_ASC_NODE":28.851,"ARG_OF_PERICENTER":303.8855,"MEAN_ANOMALY":115.0808,"EPHEMERIS_TYPE":0,"CLASSIFICATION_TYPE":"U","NORAD_CAT_ID":22988,"ELEMENT_SET_NO":999,"REV_AT_EPOCH":3189,"BSTAR":0,"MEAN_MOTION_DOT":-2.08e-6,"MEAN_MOTION_DDOT":0},{"OBJECT_NAME":"TITAN 4 CENTAUR R/B","OBJECT_ID":"1994-009B","EPOCH":"2026-03-02T07:10:18.383232","MEAN_MOTION":1.00594988,"ECCENTRICITY":0.0015112,"INCLINATION":16.7056,"RA_OF_ASC_NODE":23.8105,"ARG_OF_PERICENTER":239.9173,"MEAN_ANOMALY":119.9412,"EPHEMERIS_TYPE":0,"CLASSIFICATION_TYPE":"U","NORAD_CAT_ID":22989,"ELEMENT_SET_NO":999,"REV_AT_EPOCH":2421,"BSTAR":0,"MEAN_MOTION_DOT":-3.73e-6,"MEAN_MOTION_DDOT":0},{"OBJECT_NAME":"RADUGA 31","OBJECT_ID":"1994-012A","EPOCH":"2026-03-02T22:07:03.461376","MEAN_MOTION":1.00206162,"ECCENTRICITY":6.6e-5,"INCLINATION":14.1778,"RA_OF_ASC_NODE":349.0254,"ARG_OF_PERICENTER":175.26,"MEAN_ANOMALY":48.7522,"EPHEMERIS_TYPE":0,"CLASSIFICATION_TYPE":"U","NORAD_CAT_ID":23010,"ELEMENT_SET_NO":999,"REV_AT_EPOCH":11728,"BSTAR":0,"MEAN_MOTION_DOT":-1.57e-6,"MEAN_MOTION_DDOT":0},{"OBJECT_NAME":"DELTA 2 R/B(2)","OBJECT_ID":"1994-013C","EPOCH":"2026-03-02T19:46:48.547200","MEAN_MOTION":2.02373291,"ECCENTRICITY":0.64992553,"INCLINATION":24.9095,"RA_OF_ASC_NODE":251.889,"ARG_OF_PERICENTER":189.2788,"MEAN_ANOMALY":147.2482,"EPHEMERIS_TYPE":0,"CLASSIFICATION_TYPE":"U","NORAD_CAT_ID":23018,"ELEMENT_SET_NO":999,"REV_AT_EPOCH":23659,"BSTAR":0,"MEAN_MOTION_DOT":1.66e-6,"MEAN_MOTION_DDOT":0},{"OBJECT_NAME":"TITAN 34D TRANSTAGE DEB","OBJECT_ID":"1988-077J","EPOCH":"2026-03-02T08:32:25.886688","MEAN_MOTION":2.03931716,"ECCENTRICITY":0.73324129,"INCLINATION":26.5246,"RA_OF_ASC_NODE":153.0453,"ARG_OF_PERICENTER":211.3984,"MEAN_ANOMALY":69.1233,"EPHEMERIS_TYPE":0,"CLASSIFICATION_TYPE":"U","NORAD_CAT_ID":23039,"ELEMENT_SET_NO":999,"REV_AT_EPOCH":4903,"BSTAR":-0.0017144406,"MEAN_MOTION_DOT":-3.17e-6,"MEAN_MOTION_DDOT":0},{"OBJECT_NAME":"TITAN 34D TRANSTAGE DEB","OBJECT_ID":"1988-077K","EPOCH":"2026-03-02T12:45:04.656960","MEAN_MOTION":2.1901536,"ECCENTRICITY":0.7294104,"INCLINATION":27.1424,"RA_OF_ASC_NODE":61.9345,"ARG_OF_PERICENTER":245.0027,"MEAN_ANOMALY":26.3707,"EPHEMERIS_TYPE":0,"CLASSIFICATION_TYPE":"U","NORAD_CAT_ID":23040,"ELEMENT_SET_NO":999,"REV_AT_EPOCH":5451,"BSTAR":0.0014179,"MEAN_MOTION_DOT":4.22e-6,"MEAN_MOTION_DDOT":0},{"OBJECT_NAME":"TITAN 34D TRANSTAGE DEB","OBJECT_ID":"1988-077L","EPOCH":"2026-02-20T09:07:22.556352","MEAN_MOTION":2.22312695,"ECCENTRICITY":0.7270105,"INCLINATION":27.1425,"RA_OF_ASC_NODE":55.7315,"ARG_OF_PERICENTER":255.0999,"MEAN_ANOMALY":20.8194,"EPHEMERIS_TYPE":0,"CLASSIFICATION_TYPE":"U","NORAD_CAT_ID":23041,"ELEMENT_SET_NO":999,"REV_AT_EPOCH":5411,"BSTAR":0.0018366,"MEAN_MOTION_DOT":6.14e-6,"MEAN_MOTION_DDOT":0},{"OBJECT_NAME":"GORIZONT 30","OBJECT_ID":"1994-030A","EPOCH":"2026-03-02T03:38:05.431200","MEAN_MOTION":1.00210504,"ECCENTRICITY":0.00059395,"INCLINATION":14.1038,"RA_OF_ASC_NODE":348.9812,"ARG_OF_PERICENTER":288.8177,"MEAN_ANOMALY":252.2737,"EPHEMERIS_TYPE":0,"CLASSIFICATION_TYPE":"U","NORAD_CAT_ID":23108,"ELEMENT_SET_NO":999,"REV_AT_EPOCH":11638,"BSTAR":0,"MEAN_MOTION_DOT":-3.05e-6,"MEAN_MOTION_DDOT":0},{"OBJECT_NAME":"METEOSAT-6 AKM","OBJECT_ID":"1993-073E","EPOCH":"2026-03-02T15:13:56.808192","MEAN_MOTION":0.99999787,"ECCENTRICITY":0.0064709,"INCLINATION":14.2536,"RA_OF_ASC_NODE":347.8994,"ARG_OF_PERICENTER":106.0337,"MEAN_ANOMALY":75.633,"EPHEMERIS_TYPE":0,"CLASSIFICATION_TYPE":"U","NORAD_CAT_ID":23118,"ELEMENT_SET_NO":999,"REV_AT_EPOCH":4612,"BSTAR":0,"MEAN_MOTION_DOT":-3.37e-6,"MEAN_MOTION_DDOT":0},{"OBJECT_NAME":"ARIANE 44LP+ R/B","OBJECT_ID":"1994-034D","EPOCH":"2026-03-02T21:46:00.778080","MEAN_MOTION":2.26533657,"ECCENTRICITY":0.7220171,"INCLINATION":7.7652,"RA_OF_ASC_NODE":350.628,"ARG_OF_PERICENTER":47.4623,"MEAN_ANOMALY":353.9101,"EPHEMERIS_TYPE":0,"CLASSIFICATION_TYPE":"U","NORAD_CAT_ID":23127,"ELEMENT_SET_NO":999,"REV_AT_EPOCH":25921,"BSTAR":0.0020509,"MEAN_MOTION_DOT":4.22e-6,"MEAN_MOTION_DDOT":0},{"OBJECT_NAME":"TITAN 34D TRANSTAGE DEB","OBJECT_ID":"1988-077M","EPOCH":"2026-03-02T21:37:53.957280","MEAN_MOTION":2.00724171,"ECCENTRICITY":0.7269511,"INCLINATION":27.2255,"RA_OF_ASC_NODE":101.4565,"ARG_OF_PERICENTER":25.2543,"MEAN_ANOMALY":357.4016,"EPHEMERIS_TYPE":0,"CLASSIFICATION_TYPE":"U","NORAD_CAT_ID":23130,"ELEMENT_SET_NO":999,"REV_AT_EPOCH":4890,"BSTAR":0.016201,"MEAN_MOTION_DOT":-4.5e-7,"MEAN_MOTION_DDOT":0},{"OBJECT_NAME":"UFO 3 (USA 104)","OBJECT_ID":"1994-035A","EPOCH":"2026-03-03T02:03:29.079936","MEAN_MOTION":1.00265445,"ECCENTRICITY":0.0005712,"INCLINATION":12.3203,"RA_OF_ASC_NODE":6.3474,"ARG_OF_PERICENTER":293.0655,"MEAN_ANOMALY":244.3361,"EPHEMERIS_TYPE":0,"CLASSIFICATION_TYPE":"U","NORAD_CAT_ID":23132,"ELEMENT_SET_NO":999,"REV_AT_EPOCH":13063,"BSTAR":0,"MEAN_MOTION_DOT":-9.8e-7,"MEAN_MOTION_DDOT":0},{"OBJECT_NAME":"COSMOS 2282","OBJECT_ID":"1994-038A","EPOCH":"2026-03-03T00:43:38.659584","MEAN_MOTION":1.0024081,"ECCENTRICITY":0.0004606,"INCLINATION":13.8873,"RA_OF_ASC_NODE":353.477,"ARG_OF_PERICENTER":122.0195,"MEAN_ANOMALY":246.0861,"EPHEMERIS_TYPE":0,"CLASSIFICATION_TYPE":"U","NORAD_CAT_ID":23168,"ELEMENT_SET_NO":999,"REV_AT_EPOCH":11594,"BSTAR":0,"MEAN_MOTION_DOT":6.3e-7,"MEAN_MOTION_DDOT":0},{"OBJECT_NAME":"SL-12 R/B(2)","OBJECT_ID":"1994-038D","EPOCH":"2026-03-02T12:01:11.335296","MEAN_MOTION":0.99425831,"ECCENTRICITY":0.00225625,"INCLINATION":14.2271,"RA_OF_ASC_NODE":354.7133,"ARG_OF_PERICENTER":147.5314,"MEAN_ANOMALY":85.6421,"EPHEMERIS_TYPE":0,"CLASSIFICATION_TYPE":"U","NORAD_CAT_ID":23171,"ELEMENT_SET_NO":999,"REV_AT_EPOCH":11495,"BSTAR":0,"MEAN_MOTION_DOT":1.5e-7,"MEAN_MOTION_DDOT":0},{"OBJECT_NAME":"OPTUS B3 PKM","OBJECT_ID":"1994-055C","EPOCH":"2026-03-03T00:11:36.922272","MEAN_MOTION":2.13696385,"ECCENTRICITY":0.7334222,"INCLINATION":24.052,"RA_OF_ASC_NODE":51.6474,"ARG_OF_PERICENTER":57.3906,"MEAN_ANOMALY":353.1993,"EPHEMERIS_TYPE":0,"CLASSIFICATION_TYPE":"U","NORAD_CAT_ID":23229,"ELEMENT_SET_NO":999,"REV_AT_EPOCH":24200,"BSTAR":0.00097734,"MEAN_MOTION_DOT":2.43e-6,"MEAN_MOTION_DDOT":0},{"OBJECT_NAME":"KIKU-6 (ETS-VI)","OBJECT_ID":"1994-056A","EPOCH":"2026-03-03T02:24:42.045696","MEAN_MOTION":1.67087652,"ECCENTRICITY":0.503218,"INCLINATION":12.8543,"RA_OF_ASC_NODE":249.2526,"ARG_OF_PERICENTER":165.9231,"MEAN_ANOMALY":248.3112,"EPHEMERIS_TYPE":0,"CLASSIFICATION_TYPE":"U","NORAD_CAT_ID":23230,"ELEMENT_SET_NO":999,"REV_AT_EPOCH":19247,"BSTAR":0,"MEAN_MOTION_DOT":-9.1e-7,"MEAN_MOTION_DDOT":0},{"OBJECT_NAME":"ARIANE 44L+ DEB","OBJECT_ID":"1992-021K","EPOCH":"2026-03-03T00:14:42.150048","MEAN_MOTION":2.23457004,"ECCENTRICITY":0.6981357,"INCLINATION":3.2252,"RA_OF_ASC_NODE":157.8398,"ARG_OF_PERICENTER":180.8696,"MEAN_ANOMALY":89.2845,"EPHEMERIS_TYPE":0,"CLASSIFICATION_TYPE":"U","NORAD_CAT_ID":23240,"ELEMENT_SET_NO":999,"REV_AT_EPOCH":26143,"BSTAR":0,"MEAN_MOTION_DOT":-2.03e-6,"MEAN_MOTION_DDOT":0},{"OBJECT_NAME":"ARIANE 44L+ DEB","OBJECT_ID":"1992-021N","EPOCH":"2026-03-02T22:02:21.648768","MEAN_MOTION":2.21567081,"ECCENTRICITY":0.6887989,"INCLINATION":4.2491,"RA_OF_ASC_NODE":59.2985,"ARG_OF_PERICENTER":346.6329,"MEAN_ANOMALY":247.0696,"EPHEMERIS_TYPE":0,"CLASSIFICATION_TYPE":"U","NORAD_CAT_ID":23244,"ELEMENT_SET_NO":999,"REV_AT_EPOCH":25676,"BSTAR":0,"MEAN_MOTION_DOT":-1.23e-6,"MEAN_MOTION_DDOT":0},{"OBJECT_NAME":"TITAN 4 CENTAUR R/B","OBJECT_ID":"1994-054B","EPOCH":"2026-03-02T13:38:31.216704","MEAN_MOTION":0.99589668,"ECCENTRICITY":0.0115629,"INCLINATION":12.2503,"RA_OF_ASC_NODE":355.0199,"ARG_OF_PERICENTER":351.6623,"MEAN_ANOMALY":8.1632,"EPHEMERIS_TYPE":0,"CLASSIFICATION_TYPE":"U","NORAD_CAT_ID":23247,"ELEMENT_SET_NO":999,"REV_AT_EPOCH":2446,"BSTAR":0,"MEAN_MOTION_DOT":-2.56e-6,"MEAN_MOTION_DDOT":0},{"OBJECT_NAME":"ETS 6 DEB","OBJECT_ID":"1994-056C","EPOCH":"2026-03-01T16:12:35.860320","MEAN_MOTION":1.70299907,"ECCENTRICITY":0.51871695,"INCLINATION":11.7555,"RA_OF_ASC_NODE":152.4782,"ARG_OF_PERICENTER":339.0963,"MEAN_ANOMALY":126.5435,"EPHEMERIS_TYPE":0,"CLASSIFICATION_TYPE":"U","NORAD_CAT_ID":23248,"ELEMENT_SET_NO":999,"REV_AT_EPOCH":19587,"BSTAR":0,"MEAN_MOTION_DOT":-1.2e-6,"MEAN_MOTION_DDOT":0}]
